[{"OBJECT_NAME":"CELESTIS-17 & SHERPA-FX1","OBJECT_ID":"2021-006CB","EPOCH":"2026-03-09T15:26:05.078112","MEAN_MOTION":15.30994801,"ECCENTRICITY":0.000663,"INCLINATION":97.2397,"RA_OF_ASC_NODE":112.1052,"ARG_OF_PERICENTER":178.1385,"MEAN_ANOMALY":181.9882,"EPHEMERIS_TYPE":0,"CLASSIFICATION_TYPE":"U","NORAD_CAT_ID":47486,"ELEMENT_SET_NO":999,"REV_AT_EPOCH":28406,"BSTAR":0.00024301,"MEAN_MOTION_DOT":7.207e-5,"MEAN_MOTION_DDOT":0},{"OBJECT_NAME":"STARLINK-36410","OBJECT_ID":"2026-003D","EPOCH":"2026-03-09T10:56:13.321536","MEAN_MOTION":15.27594916,"ECCENTRICITY":9.594e-5,"INCLINATION":42.9974,"RA_OF_ASC_NODE":228.7734,"ARG_OF_PERICENTER":278.7996,"MEAN_ANOMALY":81.2747,"EPHEMERIS_TYPE":0,"CLASSIFICATION_TYPE":"U","NORAD_CAT_ID":67337,"ELEMENT_SET_NO":999,"REV_AT_EPOCH":878,"BSTAR":0.0013428845,"MEAN_MOTION_DOT":0.00036893,"MEAN_MOTION_DDOT":0}]
